{
  "type": "FeatureCollection",
  "features": [
    {
      "type": "Feature",
      "properties": {
        "norad_id": 30447,
        "name": "FENGYUN 1C DEB",
        "group": "fengyun-1c-debris",
        "lat": NaN,
        "lon": NaN,
        "alt_km": NaN,
        "timestamp": "2025-12-01T03:08:34.205982+00:00",
        "meta": {
          "OBJECT_NAME": "FENGYUN 1C DEB",
          "OBJECT_ID": "1999-025AFJ",
          "EPOCH": "2025-11-30T14:07:50.541888",
          "MEAN_MOTION": 14.56170873,
          "ECCENTRICITY": 0.0059457,
          "INCLINATION": 98.9712,
          "RA_OF_ASC_NODE": 195.225,
          "ARG_OF_PERICENTER": 66.667,
          "MEAN_ANOMALY": 322.3844,
          "EPHEMERIS_TYPE": 0,
          "CLASSIFICATION_TYPE": "U",
          "NORAD_CAT_ID": 30447,
          "ELEMENT_SET_NO": 999,
          "REV_AT_EPOCH": 97919,
          "BSTAR": 0.0024523,
          "MEAN_MOTION_DOT": 0.00011054,
          "MEAN_MOTION_DDOT": 0
        }
      },
      "geometry": {
        "type": "Point",
        "coordinates": [
          NaN,
          NaN
        ]
      }
    },
    {
      "type": "Feature",
      "properties": {
        "norad_id": 30448,
        "name": "FENGYUN 1C DEB",
        "group": "fengyun-1c-debris",
        "lat": NaN,
        "lon": NaN,
        "alt_km": NaN,
        "timestamp": "2025-12-01T03:08:34.205987+00:00",
        "meta": {
          "OBJECT_NAME": "FENGYUN 1C DEB",
          "OBJECT_ID": "1999-025AFK",
          "EPOCH": "2025-11-30T06:02:59.822592",
          "MEAN_MOTION": 14.34920532,
          "ECCENTRICITY": 0.00175475,
          "INCLINATION": 98.8316,
          "RA_OF_ASC_NODE": 65.5645,
          "ARG_OF_PERICENTER": 51.7913,
          "MEAN_ANOMALY": 332.6875,
          "EPHEMERIS_TYPE": 0,
          "CLASSIFICATION_TYPE": "U",
          "NORAD_CAT_ID": 30448,
          "ELEMENT_SET_NO": 999,
          "REV_AT_EPOCH": 97159,
          "BSTAR": 0.0021108366,
          "MEAN_MOTION_DOT": 5.971e-05,
          "MEAN_MOTION_DDOT": 0
        }
      },
      "geometry": {
        "type": "Point",
        "coordinates": [
          NaN,
          NaN
        ]
      }
    },
    {
      "type": "Feature",
      "properties": {
        "norad_id": 30450,
        "name": "FENGYUN 1C DEB",
        "group": "fengyun-1c-debris",
        "lat": NaN,
        "lon": NaN,
        "alt_km": NaN,
        "timestamp": "2025-12-01T03:08:34.205993+00:00",
        "meta": {
          "OBJECT_NAME": "FENGYUN 1C DEB",
          "OBJECT_ID": "1999-025AFM",
          "EPOCH": "2025-11-30T14:41:01.387104",
          "MEAN_MOTION": 14.61633603,
          "ECCENTRICITY": 0.0188844,
          "INCLINATION": 98.0817,
          "RA_OF_ASC_NODE": 348.913,
          "ARG_OF_PERICENTER": 246.55,
          "MEAN_ANOMALY": 237.5378,
          "EPHEMERIS_TYPE": 0,
          "CLASSIFICATION_TYPE": "U",
          "NORAD_CAT_ID": 30450,
          "ELEMENT_SET_NO": 999,
          "REV_AT_EPOCH": 99365,
          "BSTAR": 0.00068605,
          "MEAN_MOTION_DOT": 4.345e-05,
          "MEAN_MOTION_DDOT": 0
        }
      },
      "geometry": {
        "type": "Point",
        "coordinates": [
          NaN,
          NaN
        ]
      }
    },
    {
      "type": "Feature",
      "properties": {
        "norad_id": 30452,
        "name": "FENGYUN 1C DEB",
        "group": "fengyun-1c-debris",
        "lat": NaN,
        "lon": NaN,
        "alt_km": NaN,
        "timestamp": "2025-12-01T03:08:34.205999+00:00",
        "meta": {
          "OBJECT_NAME": "FENGYUN 1C DEB",
          "OBJECT_ID": "1999-025AFP",
          "EPOCH": "2025-11-29T21:56:28.151808",
          "MEAN_MOTION": 14.63712162,
          "ECCENTRICITY": 0.00498473,
          "INCLINATION": 99.321,
          "RA_OF_ASC_NODE": 110.9247,
          "ARG_OF_PERICENTER": 289.5319,
          "MEAN_ANOMALY": 195.056,
          "EPHEMERIS_TYPE": 0,
          "CLASSIFICATION_TYPE": "U",
          "NORAD_CAT_ID": 30452,
          "ELEMENT_SET_NO": 999,
          "REV_AT_EPOCH": 97919,
          "BSTAR": 0.0041344974,
          "MEAN_MOTION_DOT": 0.00021926,
          "MEAN_MOTION_DDOT": 0
        }
      },
      "geometry": {
        "type": "Point",
        "coordinates": [
          NaN,
          NaN
        ]
      }
    },
    {
      "type": "Feature",
      "properties": {
        "norad_id": 30453,
        "name": "FENGYUN 1C DEB",
        "group": "fengyun-1c-debris",
        "lat": NaN,
        "lon": NaN,
        "alt_km": NaN,
        "timestamp": "2025-12-01T03:08:34.206004+00:00",
        "meta": {
          "OBJECT_NAME": "FENGYUN 1C DEB",
          "OBJECT_ID": "1999-025AFQ",
          "EPOCH": "2025-11-30T16:14:33.748800",
          "MEAN_MOTION": 14.24610391,
          "ECCENTRICITY": 0.0115065,
          "INCLINATION": 98.8144,
          "RA_OF_ASC_NODE": 46.3469,
          "ARG_OF_PERICENTER": 261.1305,
          "MEAN_ANOMALY": 254.2683,
          "EPHEMERIS_TYPE": 0,
          "CLASSIFICATION_TYPE": "U",
          "NORAD_CAT_ID": 30453,
          "ELEMENT_SET_NO": 999,
          "REV_AT_EPOCH": 97062,
          "BSTAR": 0.0015416,
          "MEAN_MOTION_DOT": 3.792e-05,
          "MEAN_MOTION_DDOT": 0
        }
      },
      "geometry": {
        "type": "Point",
        "coordinates": [
          NaN,
          NaN
        ]
      }
    },
    {
      "type": "Feature",
      "properties": {
        "norad_id": 30454,
        "name": "FENGYUN 1C DEB",
        "group": "fengyun-1c-debris",
        "lat": NaN,
        "lon": NaN,
        "alt_km": NaN,
        "timestamp": "2025-12-01T03:08:34.206010+00:00",
        "meta": {
          "OBJECT_NAME": "FENGYUN 1C DEB",
          "OBJECT_ID": "1999-025AFR",
          "EPOCH": "2025-11-30T05:10:35.805216",
          "MEAN_MOTION": 14.15220015,
          "ECCENTRICITY": 0.01717921,
          "INCLINATION": 98.1329,
          "RA_OF_ASC_NODE": 305.542,
          "ARG_OF_PERICENTER": 231.9792,
          "MEAN_ANOMALY": 143.5473,
          "EPHEMERIS_TYPE": 0,
          "CLASSIFICATION_TYPE": "U",
          "NORAD_CAT_ID": 30454,
          "ELEMENT_SET_NO": 999,
          "REV_AT_EPOCH": 95783,
          "BSTAR": 0.0024211418,
          "MEAN_MOTION_DOT": 5.391e-05,
          "MEAN_MOTION_DDOT": 0
        }
      },
      "geometry": {
        "type": "Point",
        "coordinates": [
          NaN,
          NaN
        ]
      }
    },
    {
      "type": "Feature",
      "properties": {
        "norad_id": 30462,
        "name": "FENGYUN 1C DEB",
        "group": "fengyun-1c-debris",
        "lat": NaN,
        "lon": NaN,
        "alt_km": NaN,
        "timestamp": "2025-12-01T03:08:34.206015+00:00",
        "meta": {
          "OBJECT_NAME": "FENGYUN 1C DEB",
          "OBJECT_ID": "1999-025AFZ",
          "EPOCH": "2025-11-30T17:12:36.023904",
          "MEAN_MOTION": 14.06249346,
          "ECCENTRICITY": 0.0138891,
          "INCLINATION": 98.8161,
          "RA_OF_ASC_NODE": 323.2718,
          "ARG_OF_PERICENTER": 284.2125,
          "MEAN_ANOMALY": 255.494,
          "EPHEMERIS_TYPE": 0,
          "CLASSIFICATION_TYPE": "U",
          "NORAD_CAT_ID": 30462,
          "ELEMENT_SET_NO": 999,
          "REV_AT_EPOCH": 96624,
          "BSTAR": 0.0003358,
          "MEAN_MOTION_DOT": 5.59e-06,
          "MEAN_MOTION_DDOT": 0
        }
      },
      "geometry": {
        "type": "Point",
        "coordinates": [
          NaN,
          NaN
        ]
      }
    },
    {
      "type": "Feature",
      "properties": {
        "norad_id": 30464,
        "name": "FENGYUN 1C DEB",
        "group": "fengyun-1c-debris",
        "lat": NaN,
        "lon": NaN,
        "alt_km": NaN,
        "timestamp": "2025-12-01T03:08:34.206021+00:00",
        "meta": {
          "OBJECT_NAME": "FENGYUN 1C DEB",
          "OBJECT_ID": "1999-025AGB",
          "EPOCH": "2025-11-30T14:16:18.655104",
          "MEAN_MOTION": 14.10238529,
          "ECCENTRICITY": 0.0108296,
          "INCLINATION": 98.8391,
          "RA_OF_ASC_NODE": 25.1062,
          "ARG_OF_PERICENTER": 293.2016,
          "MEAN_ANOMALY": 225.075,
          "EPHEMERIS_TYPE": 0,
          "CLASSIFICATION_TYPE": "U",
          "NORAD_CAT_ID": 30464,
          "ELEMENT_SET_NO": 999,
          "REV_AT_EPOCH": 96892,
          "BSTAR": 0.00011811,
          "MEAN_MOTION_DOT": 1.76e-06,
          "MEAN_MOTION_DDOT": 0
        }
      },
      "geometry": {
        "type": "Point",
        "coordinates": [
          NaN,
          NaN
        ]
      }
    },
    {
      "type": "Feature",
      "properties": {
        "norad_id": 30465,
        "name": "FENGYUN 1C DEB",
        "group": "fengyun-1c-debris",
        "lat": NaN,
        "lon": NaN,
        "alt_km": NaN,
        "timestamp": "2025-12-01T03:08:34.206026+00:00",
        "meta": {
          "OBJECT_NAME": "FENGYUN 1C DEB",
          "OBJECT_ID": "1999-025AGC",
          "EPOCH": "2025-11-30T17:56:33.991296",
          "MEAN_MOTION": 14.33681529,
          "ECCENTRICITY": 0.0017504,
          "INCLINATION": 98.8301,
          "RA_OF_ASC_NODE": 62.7165,
          "ARG_OF_PERICENTER": 68.4231,
          "MEAN_ANOMALY": 56.8387,
          "EPHEMERIS_TYPE": 0,
          "CLASSIFICATION_TYPE": "U",
          "NORAD_CAT_ID": 30465,
          "ELEMENT_SET_NO": 999,
          "REV_AT_EPOCH": 97186,
          "BSTAR": 0.0019276,
          "MEAN_MOTION_DOT": 5.314e-05,
          "MEAN_MOTION_DDOT": 0
        }
      },
      "geometry": {
        "type": "Point",
        "coordinates": [
          NaN,
          NaN
        ]
      }
    }
  ]
}